NORAD_CAT_ID,OBJECT_NAME,OBJECT_TYPE,EPOCH,MEAN_MOTION,ECCENTRICITY,INCLINATION,RA_OF_ASC_NODE,ARG_OF_PERICENTER,MEAN_ANOMALY,BSTAR,MEAN_MOTION_DOT,MEAN_MOTION_DDOT,TLE_LINE0,TLE_LINE1,TLE_LINE2,SEMIMAJOR_AXIS,PERIOD,APOGEE,PERIGEE,DECAYED
54770.0,STARLINK-5448,PAYLOAD,2023-02-07 16:00:01,15.61889073,0.0001359,53.2142,49.7801,80.3213,31.3541,-0.01194,-0.00957139,0.0,0 STARLINK-5448,1 54770U 22175N   23038.66668981 -.00957139  00000-0 -11940-1 0  9998,2 54770  53.2142  49.7801 0001359  80.3213  31.3541 15.61889073  7895,6760.338,92.196,383.121,381.284,0.0
54770.0,STARLINK-5448,PAYLOAD,2023-02-07 22:00:00,15.61352568,0.0001289,53.2145,48.5629,94.4954,343.3833,-0.010973,-0.00869493,0.0,0 STARLINK-5448,1 54770U 22175N   23038.91667824 -.00869493  00000-0 -10973-1 0  9991,2 54770  53.2145  48.5629 0001289  94.4954 343.3833 15.61352568  1307,6761.886,92.228,384.623,382.88,0.0
54770.0,STARLINK-5448,PAYLOAD,2023-02-08 08:00:01,15.60544179,0.0001364,53.2149,46.5402,92.6623,167.9946,-0.01155,-0.0088546,0.0,0 STARLINK-5448,1 54770U 22175N   23039.33334491 -.00885460  00000-0 -11550-1 0  9993,2 54770  53.2149  46.5402 0001364  92.6623 167.9946 15.60544179  8004,6764.221,92.276,387.009,385.163,0.0
54770.0,STARLINK-5448,PAYLOAD,2023-02-08 14:00:01,15.60099422,0.0001352,53.2145,45.3262,90.8092,134.913,-0.012685,-0.00949362,0.0,0 STARLINK-5448,1 54770U 22175N   23039.58334491 -.00949362  00000-0 -12685-1 0  9992,2 54770  53.2145  45.3262 0001352  90.8092 134.9130 15.60099422  1309,6765.507,92.302,388.286,386.457,0.0
54770.0,STARLINK-5448,PAYLOAD,2023-02-08 22:00:00,15.5940493,0.0001395,53.2148,43.7076,103.541,194.9521,-0.011924,-0.00875817,0.0,0 STARLINK-5448,1 54770U 22175N   23039.91667824 -.00875817  00000-0 -11924-1 0  9996,2 54770  53.2148  43.7076 0001395 103.5410 194.9521 15.59404930  8095,6767.515,92.343,390.324,388.436,0.0
54770.0,STARLINK-5448,PAYLOAD,2023-02-09 12:00:00,15.58285571,0.0001116,53.2142,40.8841,90.4921,243.4351,-0.012914,-0.00905862,0.0,0 STARLINK-5448,1 54770U 22175N   23040.50001157 -.00905862  00000-0 -12914-1 0  9998,2 54770  53.2142  40.8841 0001116  90.4921 243.4351 15.58285571  1304,6770.756,92.409,393.376,391.865,0.0
54770.0,STARLINK-5448,PAYLOAD,2023-02-09 22:00:00,15.57456601,0.0001336,53.2144,38.8665,102.6069,49.4632,-0.012954,-0.00882842,0.0,0 STARLINK-5448,1 54770U 22175N   23040.91667824 -.00882842  00000-0 -12954-1 0  9998,2 54770  53.2144  38.8665 0001336 102.6069  49.4632 15.57456601  8249,6773.158,92.458,395.928,394.118,0.0
54770.0,STARLINK-5448,PAYLOAD,2023-02-10 04:00:00,15.56996141,0.0001279,53.2146,37.6598,96.6018,17.7582,-0.014129,-0.00940445,0.0,0 STARLINK-5448,1 54770U 22175N   23041.16667824 -.00940445  00000-0 -14129-1 0  9996,2 54770  53.2146  37.6598 0001279  96.6018  17.7582 15.56996141  1304,6774.493,92.486,397.225,395.492,0.0
54770.0,STARLINK-5448,PAYLOAD,2023-02-10 18:00:00,15.55823251,0.0001202,53.215,34.8436,97.6689,47.0109,-0.013817,-0.00885435,0.0,0 STARLINK-5448,1 54770U 22175N   23041.75001157 -.00885435  00000-0 -13817-1 0  9992,2 54770  53.2150  34.8436 0001202  97.6689  47.0109 15.55823251  8375,6777.898,92.556,400.577,398.948,0.0
54770.0,STARLINK-5448,PAYLOAD,2023-02-10 22:00:00,15.55504564,0.0001146,53.215,34.0395,101.8822,256.7233,-0.013932,-0.00882543,0.0,0 STARLINK-5448,1 54770U 22175N   23041.91667824 -.00882543  00000-0 -13932-1 0  9994,2 54770  53.2150  34.0395 0001146 101.8822 256.7233 15.55504564  1301,6778.823,92.574,401.465,399.911,0.0
54770.0,STARLINK-5448,PAYLOAD,2023-02-11 14:00:01,15.54249148,0.0001231,53.2152,30.8309,80.0127,52.3586,-0.016084,-0.00978094,0.0,0 STARLINK-5448,1 54770U 22175N   23042.58334491 -.00978094  00000-0 -16084-1 0  9997,2 54770  53.2152  30.8309 0001231  80.0127  52.3586 15.54249148  1307,6782.473,92.649,405.173,403.503,0.0
54770.0,STARLINK-5448,PAYLOAD,2023-02-11 16:00:00,15.54060473,0.0001214,53.2154,30.4296,89.0188,149.867,-0.01555,-0.00929109,0.0,0 STARLINK-5448,1 54770U 22175N   23042.66667824 -.00929109  00000-0 -15550-1 0  9995,2 54770  53.2154  30.4296 0001214  89.0188 149.8670 15.54060473  8515,6783.022,92.66,405.711,404.064,0.0
54770.0,STARLINK-5448,PAYLOAD,2023-02-11 22:00:00,15.53565171,0.0001298,53.2153,29.227,95.5277,102.5691,-0.015323,-0.00901779,0.0,0 STARLINK-5448,1 54770U 22175N   23042.91667824 -.00901779  00000-0 -15323-1 0  9994,2 54770  53.2153  29.2270 0001298  95.5277 102.5691 15.53565171  1308,6784.464,92.69,407.209,405.448,0.0
54770.0,STARLINK-5448,PAYLOAD,2023-02-12 14:00:01,15.52291876,0.0001102,53.2146,26.0276,88.9015,238.2755,-0.01722,-0.00975173,0.0,0 STARLINK-5448,1 54770U 22175N   23043.58334491 -.00975173  00000-0 -17220-1 0  9996,2 54770  53.2146  26.0276 0001102  88.9015 238.2755 15.52291876  1306,6788.173,92.766,410.786,409.29,0.0
54770.0,STARLINK-5448,PAYLOAD,2023-02-13 00:00:00,15.51466405,0.000128,53.215,24.0298,95.4356,40.833,-0.017175,-0.00946593,0.0,0 STARLINK-5448,1 54770U 22175N   23044.00001157 -.00946593  00000-0 -17175-1 0  9997,2 54770  53.2150  24.0298 0001280  95.4356  40.8330 15.51466405  8721,6790.581,92.815,413.315,411.577,0.0
54770.0,STARLINK-5448,PAYLOAD,2023-02-13 14:00:01,15.50164994,0.0001045,53.2145,21.2384,88.9699,65.9989,-0.0076974,-0.00418881,0.0,0 STARLINK-5448,1 54770U 22175N   23044.58334491 -.00418881  00000-0 -76974-2 0  9997,2 54770  53.2145  21.2384 0001045  88.9699  65.9989 15.50164994  1308,6794.381,92.893,416.956,415.536,0.0
54770.0,STARLINK-5448,PAYLOAD,2023-02-13 16:00:00,15.50016771,0.0001148,53.2147,20.8395,93.4959,166.7771,-0.0036996,-0.00205954,0.0,0 STARLINK-5448,1 54770U 22175N   23044.66667824 -.00205954  00000-0 -36996-2 0  9990,2 54770  53.2147  20.8395 0001148  93.4959 166.7771 15.50016771  8834,6794.814,92.902,417.459,415.899,0.0
54770.0,STARLINK-5448,PAYLOAD,2023-02-13 22:00:00,15.4987397,0.0001103,53.2148,19.6439,100.5046,115.5221,0.00056713,0.00031855,0.0,0 STARLINK-5448,1 54770U 22175N   23044.91667824  .00031855  00000-0  56713-3 0  9993,2 54770  53.2148  19.6439 0001103 100.5046 115.5221 15.49873970  8863,6795.231,92.911,417.846,416.347,0.0
54770.0,STARLINK-5448,PAYLOAD,2023-02-14 14:00:01,15.49906596,9.34e-05,53.215,16.4587,90.8666,246.9771,-0.00072244,-0.00041268,0.0,0 STARLINK-5448,1 54770U 22175N   23045.58334491 -.00041268  00000-0 -72244-3 0  9996,2 54770  53.2150  16.4587 0000934  90.8666 246.9771 15.49906596  8977,6795.136,92.909,417.636,416.366,0.0
54770.0,STARLINK-5448,PAYLOAD,2023-02-14 20:00:01,15.49864742,0.0001026,53.215,15.2627,102.9935,190.5514,0.00070517,0.00039745,0.0,0 STARLINK-5448,1 54770U 22175N   23045.83334491  .00039745  00000-0  70517-3 0  9990,2 54770  53.2150  15.2627 0001026 102.9935 190.5514 15.49864742  1301,6795.258,92.911,417.821,416.426,0.0
54770.0,STARLINK-5448,PAYLOAD,2023-02-17 03:58:20,15.53186044,0.0016674,53.2152,4.1042,266.0253,93.8853,0.017031,0.01197943,0.0,0 STARLINK-5448,1 54770U 22175N   23048.16551963  .01197943  00000-0  17031-1 0  9990,2 54770  53.2152   4.1042 0016674 266.0253  93.8853 15.53186044  9374,6785.568,92.713,418.747,396.118,0.0
54770.0,STARLINK-5448,PAYLOAD,2023-02-17 22:00:00,15.45159306,0.0001444,53.2148,0.5677,89.8156,116.3441,-0.021335,-0.00942192,0.0,0 STARLINK-5448,1 54770U 22175N   23048.91667824 -.00942192  00000-0 -21335-1 0  9994,2 54770  53.2148   0.5677 0001444  89.8156 116.3441 15.45159306  9494,6809.047,93.194,431.895,429.929,0.0
54770.0,STARLINK-5448,PAYLOAD,2023-02-18 14:00:01,15.4383401,0.0001373,53.2152,357.4075,86.4639,228.5556,-0.02165,-0.00915933,0.0,0 STARLINK-5448,1 54770U 22175N   23049.58334491 -.00915933  00000-0 -21650-1 0  9992,2 54770  53.2152 357.4075 0001373  86.4639 228.5556 15.43834010  1300,6812.943,93.274,435.744,433.873,0.0
54770.0,STARLINK-5448,PAYLOAD,2023-02-19 00:00:00,15.43037618,0.0001412,53.2154,355.4357,81.3553,30.098,-0.022973,-0.00943488,0.0,0 STARLINK-5448,1 54770U 22175N   23050.00001157 -.00943488  00000-0 -22973-1 0  9996,2 54770  53.2154 355.4357 0001412  81.3553  30.0980 15.43037618  9658,6815.287,93.322,438.115,436.19,0.0
54770.0,STARLINK-5448,PAYLOAD,2023-02-19 14:00:01,15.41873332,0.0001308,53.2156,352.6783,86.5646,25.8618,-0.022749,-0.00901814,0.0,0 STARLINK-5448,1 54770U 22175N   23050.58334491 -.00901814  00000-0 -22749-1 0  9997,2 54770  53.2156 352.6783 0001308  86.5646  25.8618 15.41873332  1309,6818.718,93.393,441.475,439.691,0.0
54770.0,STARLINK-5448,PAYLOAD,2023-02-20 02:00:01,15.40905073,0.000129,53.2153,350.3203,91.6762,276.8074,-0.023905,-0.00916131,0.0,0 STARLINK-5448,1 54770U 22175N   23051.08334491 -.00916131  00000-0 -23905-1 0  9996,2 54770  53.2153 350.3203 0001290  91.6762 276.8074 15.40905073  9820,6821.574,93.452,444.319,442.559,0.0
54770.0,STARLINK-5448,PAYLOAD,2023-02-20 14:00:01,15.39919123,0.0001332,53.2154,347.9634,99.6402,163.1498,-0.024162,-0.00897667,0.0,0 STARLINK-5448,1 54770U 22175N   23051.58334491 -.00897667  00000-0 -24162-1 0  9999,2 54770  53.2154 347.9634 0001332  99.6402 163.1498 15.39919123  1309,6824.485,93.511,447.259,445.441,0.0
54770.0,STARLINK-5448,PAYLOAD,2023-02-21 08:00:01,15.38477703,0.0001298,53.2144,344.438,84.4631,16.4667,-0.026215,-0.00926135,0.0,0 STARLINK-5448,1 54770U 22175N   23052.33334491 -.00926135  00000-0 -26215-1 0  9997,2 54770  53.2144 344.4380 0001298  84.4631  16.4667 15.38477703 10013,6828.747,93.599,451.499,449.726,0.0
54770.0,STARLINK-5448,PAYLOAD,2023-02-21 14:00:01,15.37959795,0.0001194,53.2146,343.2626,95.5666,310.5491,-0.025465,-0.00887727,0.0,0 STARLINK-5448,1 54770U 22175N   23052.58334491 -.00887727  00000-0 -25465-1 0  9993,2 54770  53.2146 343.2626 0001194  95.5666 310.5491 15.37959795  1301,6830.28,93.631,452.961,451.33,0.0
54770.0,STARLINK-5448,PAYLOAD,2023-02-22 00:00:00,15.37171001,0.0001416,53.2144,341.309,87.9574,105.79,-0.027579,-0.0093295,0.0,0 STARLINK-5448,1 54770U 22175N   23053.00001157 -.00932950  00000-0 -27579-1 0  9998,2 54770  53.2144 341.3090 0001416  87.9574 105.7900 15.37171001  1308,6832.617,93.679,455.449,453.514,0.0
